{"type": "FeatureCollection", "features": [{"type": "Feature", "properties": {"norad_id": 22490, "name": "SCD 1", "group": "resource", "lat": -7.607140796990071, "lon": -39.66052956785624, "alt_km": 751.2790670922377, "timestamp": "2025-12-03T06:58:42.897612+00:00", "meta": {"OBJECT_NAME": "SCD 1", "OBJECT_ID": "1993-009B", "EPOCH": "2025-12-02T16:54:04.309056", "MEAN_MOTION": 14.45987016, "ECCENTRICITY": 0.004184, "INCLINATION": 24.971, "RA_OF_ASC_NODE": 340.6354, "ARG_OF_PERICENTER": 218.2799, "MEAN_ANOMALY": 303.4939, "EPHEMERIS_TYPE": 0, "CLASSIFICATION_TYPE": "U", "NORAD_CAT_ID": 22490, "ELEMENT_SET_NO": 999, "REV_AT_EPOCH": 73264, "BSTAR": 0.00012191, "MEAN_MOTION_DOT": 6.32e-06, "MEAN_MOTION_DDOT": 0}, "tle": {"line1": "1 22490U 93009B   25336.70421654  .00000632  00000+0  12191-3 0  9993", "line2": "2 22490  24.9710 340.6354 0041840 218.2799 303.4939 14.45987016732640"}}, "geometry": {"type": "Point", "coordinates": [-39.66052956785624, -7.607140796990071]}}, {"type": "Feature", "properties": {"norad_id": 25397, "name": "TECHSAT 1B (GO-32)", "group": "resource", "lat": -15.597382882321874, "lon": -37.18158055135065, "alt_km": 815.2409961182138, "timestamp": "2025-12-03T06:58:42.897643+00:00", "meta": {"OBJECT_NAME": "TECHSAT 1B (GO-32)", "OBJECT_ID": "1998-043D", "EPOCH": "2025-12-02T14:11:36.880512", "MEAN_MOTION": 14.24372378, "ECCENTRICITY": 0.00022527, "INCLINATION": 98.9913, "RA_OF_ASC_NODE": 319.5698, "ARG_OF_PERICENTER": 74.0884, "MEAN_ANOMALY": 286.0542, "EPHEMERIS_TYPE": 0, "CLASSIFICATION_TYPE": "U", "NORAD_CAT_ID": 25397, "ELEMENT_SET_NO": 999, "REV_AT_EPOCH": 42334, "BSTAR": 8.2023649e-05, "MEAN_MOTION_DOT": 1.43e-06, "MEAN_MOTION_DDOT": 0}, "tle": {"line1": "1 25397U 98043D   25336.59139908  .00000143  00000+0  82024-4 0  9990", "line2": "2 25397  98.9913 319.5698 0002252  74.0884 286.0542 14.24372378423344"}}, "geometry": {"type": "Point", "coordinates": [-37.18158055135065, -15.597382882321874]}}, {"type": "Feature", "properties": {"norad_id": 25504, "name": "SCD 2", "group": "resource", "lat": 13.31140681408107, "lon": -129.31389096882637, "alt_km": 748.7000343794207, "timestamp": "2025-12-03T06:58:42.897660+00:00", "meta": {"OBJECT_NAME": "SCD 2", "OBJECT_ID": "1998-060A", "EPOCH": "2025-12-02T08:22:08.651136", "MEAN_MOTION": 14.45414, "ECCENTRICITY": 0.00167262, "INCLINATION": 24.9937, "RA_OF_ASC_NODE": 205.9699, "ARG_OF_PERICENTER": 202.5525, "MEAN_ANOMALY": 318.5622, "EPHEMERIS_TYPE": 0, "CLASSIFICATION_TYPE": "U", "NORAD_CAT_ID": 25504, "ELEMENT_SET_NO": 999, "REV_AT_EPOCH": 43181, "BSTAR": 9.8916166e-05, "MEAN_MOTION_DOT": 5.36e-06, "MEAN_MOTION_DDOT": 0}, "tle": {"line1": "1 25504U 98060A   25336.34871124  .00000536  00000+0  98916-4 0  9998", "line2": "2 25504  24.9937 205.9699 0016726 202.5525 318.5622 14.45414000431812"}}, "geometry": {"type": "Point", "coordinates": [-129.31389096882637, 13.31140681408107]}}, {"type": "Feature", "properties": {"norad_id": 25757, "name": "DLR-TUBSAT", "group": "resource", "lat": -27.192204092105086, "lon": -33.99818637396238, "alt_km": 726.9329608183443, "timestamp": "2025-12-03T06:58:42.897674+00:00", "meta": {"OBJECT_NAME": "DLR-TUBSAT", "OBJECT_ID": "1999-029B", "EPOCH": "2025-12-02T21:11:04.289856", "MEAN_MOTION": 14.52351375, "ECCENTRICITY": 0.0013372, "INCLINATION": 98.6555, "RA_OF_ASC_NODE": 321.0927, "ARG_OF_PERICENTER": 223.9038, "MEAN_ANOMALY": 136.1095, "EPHEMERIS_TYPE": 0, "CLASSIFICATION_TYPE": "U", "NORAD_CAT_ID": 25757, "ELEMENT_SET_NO": 999, "REV_AT_EPOCH": 40475, "BSTAR": 5.9222e-05, "MEAN_MOTION_DOT": 1.93e-06, "MEAN_MOTION_DDOT": 0}, "tle": {"line1": "1 25757U 99029B   25336.88268854  .00000193  00000+0  59222-4 0  9999", "line2": "2 25757  98.6555 321.0927 0013372 223.9038 136.1095 14.52351375404754"}}, "geometry": {"type": "Point", "coordinates": [-33.99818637396238, -27.192204092105086]}}, {"type": "Feature", "properties": {"norad_id": 25994, "name": "TERRA", "group": "resource", "lat": 72.92880733171903, "lon": -123.51190166710896, "alt_km": 680.8113923466435, "timestamp": "2025-12-03T06:58:42.897686+00:00", "meta": {"OBJECT_NAME": "TERRA", "OBJECT_ID": "1999-068A", "EPOCH": "2025-12-02T19:24:36.152064", "MEAN_MOTION": 14.6093363, "ECCENTRICITY": 0.0003383, "INCLINATION": 97.9763, "RA_OF_ASC_NODE": 28.8569, "ARG_OF_PERICENTER": 117.8408, "MEAN_ANOMALY": 333.6615, "EPHEMERIS_TYPE": 0, "CLASSIFICATION_TYPE": "U", "NORAD_CAT_ID": 25994, "ELEMENT_SET_NO": 999, "REV_AT_EPOCH": 38093, "BSTAR": 0.00015039, "MEAN_MOTION_DOT": 6.92e-06, "MEAN_MOTION_DDOT": 0}, "tle": {"line1": "1 25994U 99068A   25336.80875176  .00000692  00000+0  15039-3 0  9999", "line2": "2 25994  97.9763  28.8569 0003383 117.8408 333.6615 14.60933630380931"}}, "geometry": {"type": "Point", "coordinates": [-123.51190166710896, 72.92880733171903]}}, {"type": "Feature", "properties": {"norad_id": 27004, "name": "MAROC-TUBSAT", "group": "resource", "lat": -65.41480541071195, "lon": 167.74336941246332, "alt_km": 991.8312498288105, "timestamp": "2025-12-03T06:58:42.897698+00:00", "meta": {"OBJECT_NAME": "MAROC-TUBSAT", "OBJECT_ID": "2001-056D", "EPOCH": "2025-12-02T10:24:58.972032", "MEAN_MOTION": 13.70252105, "ECCENTRICITY": 0.00191119, "INCLINATION": 99.7911, "RA_OF_ASC_NODE": 144.6986, "ARG_OF_PERICENTER": 287.5856, "MEAN_ANOMALY": 100.9799, "EPHEMERIS_TYPE": 0, "CLASSIFICATION_TYPE": "U", "NORAD_CAT_ID": 27004, "ELEMENT_SET_NO": 999, "REV_AT_EPOCH": 19924, "BSTAR": 3.5947441e-05, "MEAN_MOTION_DOT": -1.5e-07, "MEAN_MOTION_DDOT": 0}, "tle": {"line1": "1 27004U 01056D   25336.43401588 -.00000015  00000+0  35947-4 0  9995", "line2": "2 27004  99.7911 144.6986 0019111 287.5856 100.9799 13.70252105199249"}}, "geometry": {"type": "Point", "coordinates": [167.74336941246332, -65.41480541071195]}}, {"type": "Feature", "properties": {"norad_id": 27424, "name": "AQUA", "group": "resource", "lat": -49.01311432402317, "lon": -52.18862167614697, "alt_km": 694.7925789317496, "timestamp": "2025-12-03T06:58:42.897711+00:00", "meta": {"OBJECT_NAME": "AQUA", "OBJECT_ID": "2002-022A", "EPOCH": "2025-12-02T21:37:19.748064", "MEAN_MOTION": 14.61769935, "ECCENTRICITY": 7.33e-05, "INCLINATION": 98.4023, "RA_OF_ASC_NODE": 297.6211, "ARG_OF_PERICENTER": 107.7415, "MEAN_ANOMALY": 312.2799, "EPHEMERIS_TYPE": 0, "CLASSIFICATION_TYPE": "U", "NORAD_CAT_ID": 27424, "ELEMENT_SET_NO": 999, "REV_AT_EPOCH": 25459, "BSTAR": 0.00031293, "MEAN_MOTION_DOT": 1.512e-05, "MEAN_MOTION_DDOT": 0}, "tle": {"line1": "1 27424U 02022A   25336.90092301  .00001512  00000+0  31293-3 0  9997", "line2": "2 27424  98.4023 297.6211 0000733 107.7415 312.2799 14.61769935254592"}}, "geometry": {"type": "Point", "coordinates": [-52.18862167614697, -49.01311432402317]}}, {"type": "Feature", "properties": {"norad_id": 28051, "name": "IRS-P6 (RESOURCESAT-1)", "group": "resource", "lat": -30.47459571327604, "lon": 23.01421151587772, "alt_km": 800.0939755828531, "timestamp": "2025-12-03T06:58:42.897723+00:00", "meta": {"OBJECT_NAME": "IRS-P6 (RESOURCESAT-1)", "OBJECT_ID": "2003-046A", "EPOCH": "2025-12-02T21:53:54.497184", "MEAN_MOTION": 14.36067002, "ECCENTRICITY": 0.0063625, "INCLINATION": 98.2192, "RA_OF_ASC_NODE": 17.7743, "ARG_OF_PERICENTER": 210.2934, "MEAN_ANOMALY": 323.5431, "EPHEMERIS_TYPE": 0, "CLASSIFICATION_TYPE": "U", "NORAD_CAT_ID": 28051, "ELEMENT_SET_NO": 999, "REV_AT_EPOCH": 15235, "BSTAR": 0.00011737, "MEAN_MOTION_DOT": 3.08e-06, "MEAN_MOTION_DDOT": 0}, "tle": {"line1": "1 28051U 03046A   25336.91243631  .00000308  00000+0  11737-3 0  9999", "line2": "2 28051  98.2192  17.7743 0063625 210.2934 323.5431 14.36067002152357"}}, "geometry": {"type": "Point", "coordinates": [23.01421151587772, -30.47459571327604]}}, {"type": "Feature", "properties": {"norad_id": 28220, "name": "SHIYAN-1 (SY-1)", "group": "resource", "lat": -38.34975818587764, "lon": 44.578015370737305, "alt_km": 485.6350371105591, "timestamp": "2025-12-03T06:58:42.897734+00:00", "meta": {"OBJECT_NAME": "SHIYAN-1 (SY-1)", "OBJECT_ID": "2004-012A", "EPOCH": "2025-12-02T17:00:01.355328", "MEAN_MOTION": 15.27736035, "ECCENTRICITY": 0.0006359, "INCLINATION": 97.8957, "RA_OF_ASC_NODE": 37.6577, "ARG_OF_PERICENTER": 2.5702, "MEAN_ANOMALY": 357.5567, "EPHEMERIS_TYPE": 0, "CLASSIFICATION_TYPE": "U", "NORAD_CAT_ID": 28220, "ELEMENT_SET_NO": 999, "REV_AT_EPOCH": 18103, "BSTAR": 0.00061767, "MEAN_MOTION_DOT": 0.00016686, "MEAN_MOTION_DDOT": 0}, "tle": {"line1": "1 28220U 04012A   25336.70834902  .00016686  00000+0  61767-3 0  9999", "line2": "2 28220  97.8957  37.6577 0006359   2.5702 357.5567 15.27736035181035"}}, "geometry": {"type": "Point", "coordinates": [44.578015370737305, -38.34975818587764]}}, {"type": "Feature", "properties": {"norad_id": 28376, "name": "AURA", "group": "resource", "lat": 67.43737350121145, "lon": 128.0881274819738, "alt_km": 682.9566517612848, "timestamp": "2025-12-03T06:58:42.897746+00:00", "meta": {"OBJECT_NAME": "AURA", "OBJECT_ID": "2004-026A", "EPOCH": "2025-12-02T20:36:34.634880", "MEAN_MOTION": 14.60907724, "ECCENTRICITY": 0.0001074, "INCLINATION": 98.3169, "RA_OF_ASC_NODE": 287.0404, "ARG_OF_PERICENTER": 90.5296, "MEAN_ANOMALY": 269.6027, "EPHEMERIS_TYPE": 0, "CLASSIFICATION_TYPE": "U", "NORAD_CAT_ID": 28376, "ELEMENT_SET_NO": 999, "REV_AT_EPOCH": 13754, "BSTAR": 0.00031962, "MEAN_MOTION_DOT": 1.517e-05, "MEAN_MOTION_DDOT": 0}, "tle": {"line1": "1 28376U 04026A   25336.85873420  .00001517  00000+0  31962-3 0  9991", "line2": "2 28376  98.3169 287.0404 0001074  90.5296 269.6027 14.60907724137544"}}, "geometry": {"type": "Point", "coordinates": [128.0881274819738, 67.43737350121145]}}]}